[{"OBJECT_NAME":"AFR-1","OBJECT_ID":"2023-084AJ","EPOCH":"2026-03-09T23:02:07.499328","MEAN_MOTION":15.27543824,"ECCENTRICITY":0.00099838,"INCLINATION":97.6099,"RA_OF_ASC_NODE":203.4313,"ARG_OF_PERICENTER":334.9676,"MEAN_ANOMALY":25.1077,"EPHEMERIS_TYPE":0,"CLASSIFICATION_TYPE":"U","NORAD_CAT_ID":56964,"ELEMENT_SET_NO":999,"REV_AT_EPOCH":15207,"BSTAR":0.00024843733,"MEAN_MOTION_DOT":6.624e-5,"MEAN_MOTION_DDOT":0},{"OBJECT_NAME":"STARLINK-32795","OBJECT_ID":"2025-034P","EPOCH":"2026-03-09T17:09:33.215328","MEAN_MOTION":15.30230622,"ECCENTRICITY":0.0001297,"INCLINATION":53.1603,"RA_OF_ASC_NODE":257.7951,"ARG_OF_PERICENTER":97.3903,"MEAN_ANOMALY":262.7245,"EPHEMERIS_TYPE":0,"CLASSIFICATION_TYPE":"U","NORAD_CAT_ID":63042,"ELEMENT_SET_NO":999,"REV_AT_EPOCH":5909,"BSTAR":0.0014329308,"MEAN_MOTION_DOT":0.00042363,"MEAN_MOTION_DDOT":0}]
